STARLINK-2379           
1 47798U 21018M   25078.24907996  .00021372  00000+0  14474-2 0  9991
2 47798  53.0557  27.2471 0001505  92.6938 267.4223 15.06450129223302
STARLINK-2380           
1 47799U 21018N   25078.24538645  .00024808  00000+0  16759-2 0  9998
2 47799  53.0540  27.2692 0001110 108.2291 251.8819 15.06456973223297
STARLINK-2381           
1 47800U 21018P   25078.13481527  .00029183  00000+0  19670-2 0  9991
2 47800  53.0555  27.7630 0001373  83.7144 276.4001 15.06455957223284
STARLINK-2383           
1 47802U 21018R   25078.14909677  .00014532  00000+0  99182-3 0  9994
2 47802  53.0542  52.7005 0001180  96.1843 263.9281 15.06424506222596
STARLINK-2384           
1 47803U 21018S   25078.58335648  .01253596  00000+0  22630-1 0  9992
2 47803  53.0560  23.2011 0001315 111.2347 331.1873 15.46318935  5838
STARLINK-2385           
1 47804U 21018T   25078.16062067 -.00010195  00000+0 -66685-3 0  9996
2 47804  53.0550  27.6522 0001472 105.4870 254.6282 15.06380063223284
STARLINK-2386           
1 47805U 21018U   25078.26015782  .00025940  00000+0  17513-2 0  9997
2 47805  53.0548  27.4447 0001451 115.1867 244.9272 15.06456488223306
STARLINK-2387           
1 47806U 21018V   25078.26428240  .00020772  00000+0  14079-2 0  9997
2 47806  53.0551  42.1940 0001255  99.8120 260.3011 15.06436230223154
STARLINK-2388           
1 47807U 21018W   25078.05465027  .00029862  00000+0  20119-2 0  9990
2 47807  53.0565  18.1267 0001145 102.2624 257.8493 15.06460620223404
STARLINK-2389           
1 47808U 21018X   25078.21636615  .00001637  00000+0  12872-3 0  9990
2 47808  53.0566  42.3998 0001767  69.7029 290.4150 15.06421753223140
STARLINK-2391           
1 47810U 21018Z   25078.31265644  .00012777  00000+0  87428-3 0  9990
2 47810  53.0542  56.9631 0001465  90.8645 269.2512 15.06434172222948
STARLINK-2393           
1 47812U 21018AB  25078.32372293  .00006423  00000+0  44924-3 0  9997
2 47812  53.0540  56.9159 0001548  97.8132 262.3033 15.06437633222883
STARLINK-2395           
1 47814U 21018AD  25078.19931272  .00011669  00000+0  80011-3 0  9997
2 47814  53.0555  47.4736 0001430 113.6839 246.4300 15.06440007223079
STARLINK-2396           
1 47815U 21018AE  25078.29745610  .00008085  00000+0  56060-3 0  9993
2 47815  53.0582  42.0270 0001890 104.2976 255.8223 15.06430307223094
STARLINK-2399           
1 47816U 21018AF  25078.30621673 -.00004889  00000+0 -30963-3 0  9992
2 47816  53.0562  46.9822 0001573  87.2992 272.8177 15.06388149223021
STARLINK-2400           
1 47817U 21018AG  25078.32462914 -.00005785  00000+0 -36977-3 0  9993
2 47817  53.0547  46.9131 0001087 122.3099 237.7995 15.06401688223029
STARLINK-2401           
1 47818U 21018AH  25078.19708177  .00007788  00000+0  54078-3 0  9998
2 47818  53.0552  52.9474 0001802  92.0480 268.0715 15.06425078222930
STARLINK-2402           
1 47819U 21018AJ  25078.19469056  .00019597  00000+0  13295-2 0  9995
2 47819  53.0556  47.4842 0001332  92.1742 267.9400 15.06437376223072
STARLINK-2403           
1 47820U 21018AK  25078.58335648  .01246269  00000+0  20526-1 0  9992
2 47820  53.0567  52.9740 0001283 103.1851 289.6737 15.48993224  5834
STARLINK-2406           
1 47821U 21018AL  25078.28777953  .00004440  00000+0  31661-3 0  9995
2 47821  53.0556  47.0901 0001634 116.6317 243.4840 15.06417993223027
STARLINK-2407           
1 47822U 21018AM  25078.36332446  .00006894  00000+0  48098-3 0  9996
2 47822  53.0548  56.7280 0001403  91.7964 268.3185 15.06419405222905
STARLINK-2408           
1 47823U 21018AN  25078.17994851  .00011376  00000+0  78076-3 0  9990
2 47823  53.0552  47.5489 0001773  93.0130 267.1061 15.06430335223018
STARLINK-2409           
1 47824U 21018AP  25078.30252289  .00013876  00000+0  94772-3 0  9996
2 47824  53.0549  47.0087 0001480  84.5732 275.5425 15.06433751223025
STARLINK-2410           
1 47825U 21018AQ  25078.32095898  .00019947  00000+0  13527-2 0  9993
2 47825  53.0551  46.9264 0001708  97.6088 262.5095 15.06441982223031
STARLINK-2411           
1 47826U 21018AR  25078.31725643  .00012495  00000+0  85519-3 0  9993
2 47826  53.0550  46.9434 0001469  91.3472 268.7685 15.06446488223031
STARLINK-2413           
1 47827U 21018AS  25078.16709540  .00022902  00000+0  15494-2 0  9993
2 47827  53.0563  37.8592 0001300 102.0231 258.0904 15.06447359223200
STARLINK-2415           
1 47828U 21018AT  25078.23527883  .00022343  00000+0  15129-2 0  9994
2 47828  53.0541  57.3170 0001417  90.2503 269.8649 15.06428928222885
STARLINK-2416           
1 47829U 21018AU  25078.32003483  .00002522  00000+0  18805-3 0  9992
2 47829  53.0541  56.9297 0001538  94.5664 265.5500 15.06415050222881
STARLINK-2419           
1 47830U 21018AV  25078.31634474  .00011611  00000+0  79649-3 0  9995
2 47830  53.0553  56.9529 0001654  91.8009 268.3169 15.06429483222883
STARLINK-2420           
1 47831U 21018AW  25078.25046278  .00005567  00000+0  39193-3 0  9991
2 47831  53.0570  32.2480 0001675  70.0984 290.0185 15.06437418223282
STARLINK-2422           
1 47832U 21018AX  25078.33938070  .00013031  00000+0  89097-3 0  9994
2 47832  53.0549  46.8423 0001703  89.3160 270.8025 15.06446688223039
STARLINK-2423           
1 47833U 21018AY  25078.23249957  .00004591  00000+0  32670-3 0  9999
2 47833  53.0550  47.3291 0001487  86.0879 274.0280 15.06421060223071
STARLINK-2424           
1 47834U 21018AZ  25078.17720366  .00016383  00000+0  11153-2 0  9995
2 47834  53.0548  47.5737 0001318  71.2861 288.8271 15.06429920223061
STARLINK-2426           
1 47836U 21018BB  25078.19563488  .00007787  00000+0  54058-3 0  9999
2 47836  53.0551  47.5775 0001406 103.5669 256.5476 15.06432428223013
STARLINK-2427           
1 47837U 21018BC  25078.27119166  .00025087  00000+0  16936-2 0  9994
2 47837  53.0566  27.1503 0001362 106.5623 253.5516 15.06475936223313
STARLINK-2429           
1 47838U 21018BD  25078.28409602  .00017769  00000+0  12076-2 0  9992
2 47838  53.0549  47.0992 0001330 105.5882 254.5253 15.06436891223023
STARLINK-2431           
1 47839U 21018BE  25078.24630405  .00032360  00000+0  21772-2 0  9993
2 47839  53.0559  17.2641 0001416 109.3205 250.7937 15.06471768223457
STARLINK-2432           
1 47840U 21018BF  25078.25644238  .00031158  00000+0  20975-2 0  9993
2 47840  53.0548  27.2161 0001369 110.0655 250.0482 15.06469153223307
STARLINK-2433           
1 47841U 21018BG  25078.12008958  .00007773  00000+0  54012-3 0  9999
2 47841  53.0550  27.8313 0001234  84.7430 275.3700 15.06403453223286
STARLINK-2435           
1 47843U 21018BJ  25078.34444483  .00013332  00000+0  91153-3 0  9997
2 47843  53.0552  51.8208 0001268  94.0404 266.0730 15.06427104222987
STARLINK-2446           
1 47844U 21018BK  25078.34309048  .00003204  00000+0  23381-3 0  9990
2 47844  53.0552  46.8293 0001319 103.7653 256.3482 15.06411365223032
STARLINK-2453           
1 47845U 21018BL  25078.16247629  .00017050  00000+0  11602-2 0  9993
2 47845  53.0545  47.6496 0001639 105.8525 254.2644 15.06418236223014
SHIYAN 9 (SY-9)         
1 47851U 21019A   25077.51600057 -.00000227  00000+0  00000+0 0  9993
2 47851  17.5173 308.3028 0013757  18.9835 181.1549  1.00281923 19568
YAOGAN-31 04A           
1 47854U 21020A   25078.43314058  .00000048  00000+0  22124-3 0  9998
2 47854  63.4098 346.3637 0134736 358.8209   1.2480 13.45397271197285
YAOGAN-31 04B           
1 47856U 21020C   25078.43332859  .00000039  00000+0  20603-3 0  9999
2 47856  63.4093 347.1701 0134436 358.8844   1.1863 13.45398927197222
YAOGAN-31 04C           
1 47857U 21020D   25078.43341370  .00000040  00000+0  20796-3 0  9993
2 47857  63.4103 346.4196 0134592 358.7995   1.2689 13.45398848197278
STARLINK-2280           
1 47861U 21021B   25078.24769738  .00003322  00000+0  24172-3 0  9998
2 47861  53.0550  62.2595 0001635 101.0484 259.0689 15.06416318222693
STARLINK-2291           
1 47862U 21021C   25078.36057255  .00006681  00000+0  46656-3 0  9998
2 47862  53.0552  56.7501 0001562 106.5172 253.5989 15.06433130222776
STARLINK-2293           
1 47863U 21021D   25078.58335648  .01094839  00000+0  79977-2 0  9992
2 47863  53.0516  57.6365 0001246  98.5927  71.3039 15.70345166  5887
STARLINK-2323           
1 47868U 21021J   25078.58335648  .00636633  00000+0  16402-1 0  9993
2 47868  53.0550   3.5595 0004003  40.4628 189.4765 15.36499816  5334
STARLINK-2326           
1 47870U 21021L   25078.37119798 -.00000523  00000+0 -16222-4 0  9997
2 47870  53.0547  81.7044 0001539  97.3864 262.7300 15.06400047222329
STARLINK-2329           
1 47873U 21021P   25078.19841046  .00008652  00000+0  59870-3 0  9992
2 47873  53.0541  57.4783 0001551  87.5929 272.5237 15.06420220222742
STARLINK-2330           
1 47874U 21021Q   25078.20808129  .00007006  00000+0  48878-3 0  9998
2 47874  53.0565  12.4488 0001206 106.1598 253.9523 15.06396972223387
STARLINK-2336           
1 47879U 21021V   25078.26797769  .00002040  00000+0  15578-3 0  9990
2 47879  53.0564  82.1628 0001701  87.2975 272.8209 15.06415771222580
STARLINK-2340           
1 47882U 21021Y   25078.17572773  .00071371  00000+0  24501-2 0  9998
2 47882  53.0566  50.0909 0001887   2.5337 357.5671 15.29510232223026
STARLINK-2342           
1 47883U 21021Z   25078.21359926  .00002208  00000+0  16701-3 0  9994
2 47883  53.0531  72.4083 0001317 102.1158 257.9979 15.06418366222715
STARLINK-2343           
1 47884U 21021AA  25078.26291701  .00003673  00000+0  26524-3 0  9997
2 47884  53.0542  77.1888 0001717  87.5495 272.5690 15.06416279222474
STARLINK-2346           
1 47887U 21021AD  25078.28133402  .00005202  00000+0  36759-3 0  9996
2 47887  53.0539  77.1053 0001521  99.8023 260.3138 15.06425697222480
